GUOWANG TEST OBJECT B   
1 69321U 26120B   26155.27875762  .00027005  00000+0  69390-3 0  9998
2 69321  55.0006  85.8667 0009100 296.4175  63.5919 15.39121370   705
GUOWANG TEST OBJECT C   
1 69322U 26120C   26156.05703209  .00021135  00000+0  53989-3 0  9997
2 69322  54.9977  82.3496 0009336 301.6067  58.4050 15.39445008   822
GUOWANG TEST OBJECT D   
1 69323U 26120D   26155.66644343  .00032137  00000+0  80800-3 0  9993
2 69323  55.0029  84.1123 0008002 301.7889  58.2360 15.39704502   764
QIANFAN-163             
1 69325U 26121A   26156.30838899  .00000025  00000+0  17623-4 0  9994
2 69325  89.0163 301.7172 0018934 222.3655 137.6040 13.60350693   541
QIANFAN-164             
1 69326U 26121B   26156.30794804  .00000130  00000+0  15623-3 0  9996
2 69326  89.0159 301.7168 0018322 223.8411 136.1293 13.60503870   540
SZ-22 MODULE            
1 69328U 25272C   26155.94793699  .00022470  00000+0  27599-3 0  9990
2 69328  41.4810  36.4880 0008356 350.2706   9.7969 15.59719201  1418
